[{"OBJECT_NAME":"HXMT (HUIYAN)","OBJECT_ID":"2017-034A","EPOCH":"2026-03-09T23:24:09.166176","MEAN_MOTION":15.17468939,"ECCENTRICITY":0.00329459,"INCLINATION":43.0157,"RA_OF_ASC_NODE":15.0865,"ARG_OF_PERICENTER":237.7405,"MEAN_ANOMALY":122.0249,"EPHEMERIS_TYPE":0,"CLASSIFICATION_TYPE":"U","NORAD_CAT_ID":42758,"ELEMENT_SET_NO":999,"REV_AT_EPOCH":48258,"BSTAR":0.00038670516,"MEAN_MOTION_DOT":7.762e-5,"MEAN_MOTION_DDOT":0},{"OBJECT_NAME":"LEGION 3","OBJECT_ID":"2024-146A","EPOCH":"2026-03-09T21:00:06.623424","MEAN_MOTION":15.16154835,"ECCENTRICITY":0.00135587,"INCLINATION":45.0003,"RA_OF_ASC_NODE":202.9187,"ARG_OF_PERICENTER":321.2712,"MEAN_ANOMALY":38.7194,"EPHEMERIS_TYPE":0,"CLASSIFICATION_TYPE":"U","NORAD_CAT_ID":60452,"ELEMENT_SET_NO":999,"REV_AT_EPOCH":8695,"BSTAR":0.00032920336,"MEAN_MOTION_DOT":6.211e-5,"MEAN_MOTION_DDOT":0}]
